GLOBAL-2                
1 43812U 18099BG  26068.69955396  .00003970  00000+0  26145-3 0  9998
2 43812  97.3697 109.3280 0007454 127.1924 232.9986 15.08046936396919
STARLINK-3808           
1 52366U 22045AM  26068.64200832 -.00000791  00000+0 -31599-4 0  9991
2 52366  53.2172 189.3353 0001153  86.4553 273.6571 15.08841803215914
